NORAD_CAT_ID,OBJECT_NAME,OBJECT_TYPE,EPOCH,MEAN_MOTION,ECCENTRICITY,INCLINATION,RA_OF_ASC_NODE,ARG_OF_PERICENTER,MEAN_ANOMALY,BSTAR,MEAN_MOTION_DOT,MEAN_MOTION_DDOT,TLE_LINE0,TLE_LINE1,TLE_LINE2,SEMIMAJOR_AXIS,PERIOD,APOGEE,PERIGEE,DECAYED
50190.0,STARLINK-3268,PAYLOAD,2022-08-14 18:16:27,15.0883913,0.0001623,53.2184,328.1924,54.4169,305.6974,0.00011803,1.591e-05,0.0,0 STARLINK-3268,1 50190U 21125AL  22226.76143217  .00001591  00000-0  11803-3 0  9993,2 50190  53.2184 328.1924 0001623  54.4169 305.6974 15.08839130 40039,6917.8830000000025,95.438,540.871,538.625,0.0
50190.0,STARLINK-3268,PAYLOAD,2022-08-15 11:45:41,15.08851015,0.000155,53.2184,324.9218,52.0087,308.1045,0.00040235,6.123e-05,0.0,0 STARLINK-3268,1 50190U 21125AL  22227.49006872  .00006123  00000-0  40235-3 0  9996,2 50190  53.2184 324.9218 0001550  52.0087 308.1045 15.08851015 40146,6917.847,95.437,540.784,538.639,0.0
50190.0,STARLINK-3268,PAYLOAD,2022-08-15 13:21:05,15.08849671,0.000156,53.2185,324.6245,50.7267,309.3864,0.00043315,6.614e-05,0.0,0 STARLINK-3268,1 50190U 21125AL  22227.55631002  .00006614  00000-0  43315-3 0  9999,2 50190  53.2185 324.6245 0001560  50.7267 309.3864 15.08849671 39673,6917.851,95.437,540.795,538.637,0.0
50190.0,STARLINK-3268,PAYLOAD,2022-08-15 18:07:14,15.08848064,0.0001578,53.2182,323.7328,48.9705,311.1424,0.00035175,5.316e-05,0.0,0 STARLINK-3268,1 50190U 21125AL  22227.75503021  .00005316  00000-0  35175-3 0  9993,2 50190  53.2182 323.7328 0001578  48.9705 311.1424 15.08848064 40183,6917.856,95.437,540.812,538.629,0.0
50190.0,STARLINK-3268,PAYLOAD,2022-08-16 11:36:28,15.08855862,0.00016,53.218,320.4623,46.3823,313.7302,0.00030483,4.569e-05,0.0,0 STARLINK-3268,1 50190U 21125AL  22228.48366343  .00004569  00000-0  30483-3 0  9994,2 50190  53.2180 320.4623 0001600  46.3823 313.7302 15.08855862 40291,6917.831999999999,95.437,540.804,538.59,0.0
50190.0,STARLINK-3268,PAYLOAD,2022-08-16 16:22:37,15.08853184,0.0001575,53.2179,319.5701,49.0758,311.0370000000001,0.00021186,3.087e-05,0.0,0 STARLINK-3268,1 50190U 21125AL  22228.68238301  .00003087  00000-0  21186-3 0  9992,2 50190  53.2179 319.5701 0001575  49.0758 311.0370 15.08853184 39843,6917.84,95.437,540.795,538.616,0.0
50190.0,STARLINK-3268,PAYLOAD,2022-08-17 05:05:43,15.08844562,0.000164,53.2178,317.1912,49.9041,310.2095,-6.2305999999999976e-06,-3.87e-06,0.0,0 STARLINK-3268,1 50190U 21125AL  22229.21230347 -.00000387  00000-0 -62306-5 0  9997,2 50190  53.2178 317.1912 0001640  49.9041 310.2095 15.08844562 39921,6917.866,95.437,540.866,538.597,0.0
50190.0,STARLINK-3268,PAYLOAD,2022-08-17 13:02:38,15.08842546,0.000161,53.2181,315.704,54.9732,305.1411,-1.921e-05,-5.94e-06,0.0,0 STARLINK-3268,1 50190U 21125AL  22229.54350534 -.00000594  00000-0 -19210-4 0  9999,2 50190  53.2181 315.7040 0001610  54.9732 305.1411 15.08842546 40456,6917.873000000001,95.437,540.851,538.624,0.0
50190.0,STARLINK-3268,PAYLOAD,2022-08-18 06:31:52,15.08848611,0.0001613,53.218,312.4327,51.2819,308.8317,9.4541e-05,1.217e-05,0.0,0 STARLINK-3268,1 50190U 21125AL  22230.27214036  .00001217  00000-0  94541-4 0  9998,2 50190  53.2180 312.4327 0001613  51.2819 308.8317 15.08848611 40089,6917.854,95.437,540.835,538.6030000000002,0.0
50190.0,STARLINK-3268,PAYLOAD,2022-08-18 12:53:26,15.08841856,0.0001593,53.2191,311.2452,53.7208,306.3931,-5.9929e-06,-3.83e-06,0.0,0 STARLINK-3268,1 50190U 21125AL  22230.53710741 -.00000383  00000-0 -59929-5 0  9998,2 50190  53.2191 311.2452 0001593  53.7208 306.3931 15.08841856 40600,6917.875,95.437,540.842,538.638,0.0
50190.0,STARLINK-3268,PAYLOAD,2022-08-18 17:39:35,15.08840578,0.0001648,53.2178,310.3514,52.1381,307.976,-2.1166e-05,-6.25e-06,0.0,0 STARLINK-3268,1 50190U 21125AL  22230.73582368 -.00000625  00000-0 -21166-4 0  9992,2 50190  53.2178 310.3514 0001648  52.1381 307.9760 15.08840578 40157,6917.879,95.438,540.884,538.604,0.0
50190.0,STARLINK-3268,PAYLOAD,2022-08-19 11:08:49,15.08835398,0.0001644,53.2178,307.0803,51.1737,308.9402,2.3346e-05,8.3e-07,0.0,0 STARLINK-3268,1 50190U 21125AL  22231.46446734  .00000083  00000-0  23346-4 0  9997,2 50190  53.2178 307.0803 0001644  51.1737 308.9402 15.08835398 40744,6917.894,95.438,540.8969999999998,538.622,0.0
50190.0,STARLINK-3268,PAYLOAD,2022-08-20 10:59:37,15.08832124,0.0001701,53.2176,302.6199,55.3752,304.74,-4.593100000000001e-05,-1.019e-05,0.0,0 STARLINK-3268,1 50190U 21125AL  22232.45807229 -.00001019  00000-0 -45931-4 0  9993,2 50190  53.2176 302.6199 0001701  55.3752 304.7400 15.08832124 40418,6917.904,95.438,540.946,538.5930000000002,0.0
50190.0,STARLINK-3268,PAYLOAD,2022-08-20 14:10:23,15.08838285,0.0001873,53.2176,302.0253,68.2635,291.8556,-0.00032751,-5.497e-05,0.0,0 STARLINK-3268,1 50190U 21125AL  22232.59054938 -.00005497  00000-0 -32751-3 0  9998,2 50190  53.2176 302.0253 0001873  68.2635 291.8556 15.08838285 40913,6917.886,95.438,541.0459999999998,538.455,0.0
50190.0,STARLINK-3268,PAYLOAD,2022-08-21 10:50:24,15.08834491,0.0001635,53.2185,298.1598,56.7301,303.3848,9.0596e-05,1.154e-05,0.0,0 STARLINK-3268,1 50190U 21125AL  22233.45167547  .00001154  00000-0  90596-4 0  9991,2 50190  53.2185 298.1598 0001635  56.7301 303.3848 15.08834491 41041,6917.897,95.438,540.893,538.631,0.0
50190.0,STARLINK-3268,PAYLOAD,2022-08-21 14:01:11,15.08834463,0.000165,53.2184,297.5651,55.897,304.2179,8.715200000000001e-05,1.099e-05,0.0,0 STARLINK-3268,1 50190U 21125AL  22233.58415619  .00001099  00000-0  87152-4 0  9993,2 50190  53.2184 297.5651 0001650  55.8970 304.2179 15.08834463 40586,6917.897,95.438,540.904,538.621,0.0
50190.0,STARLINK-3268,PAYLOAD,2022-08-22 07:30:25,15.08837336,0.0001828,53.2181,294.2947,52.6276,307.4882,0.00016915,2.405e-05,0.0,0 STARLINK-3268,1 50190U 21125AL  22234.31279415  .00002405  00000-0  16915-3 0  9997,2 50190  53.2181 294.2947 0001828  52.6276 307.4882 15.08837336 41170,6917.889,95.438,541.018,538.489,0.0
50190.0,STARLINK-3268,PAYLOAD,2022-08-22 10:41:11,15.08838783,0.0001824,53.2181,293.6999,52.9062,307.2097,0.0001771999999999,2.533e-05,0.0,0 STARLINK-3268,1 50190U 21125AL  22234.44527343  .00002533  00000-0  17720-3 0  9994,2 50190  53.2181 293.6999 0001824  52.9062 307.2097 15.08838783 41197,6917.884,95.438,541.011,538.487,0.0
50190.0,STARLINK-3268,PAYLOAD,2022-08-23 04:10:26,15.08836534,0.0001857,53.2179,290.4290000000001,53.9265,306.1899,7.908600000000001e-05,9.71e-06,0.0,0 STARLINK-3268,1 50190U 21125AL  22235.17391862  .00000971  00000-0  79086-4 0  9998,2 50190  53.2179 290.4290 0001857  53.9265 306.1899 15.08836534 40824,6917.891,95.438,541.0409999999998,538.471,0.0
50190.0,STARLINK-3268,PAYLOAD,2022-08-23 12:07:22,15.08833575,0.0001858,53.2181,288.9424,52.7018,307.4144,3.0656e-06,-2.39e-06,0.0,0 STARLINK-3268,1 50190U 21125AL  22235.50512251 -.00000239  00000-0  30656-5 0  9991,2 50190  53.2181 288.9424 0001858  52.7018 307.4144 15.08833575 41350,6917.9,95.438,541.05,538.48,0.0
50190.0,STARLINK-3268,PAYLOAD,2022-08-24 11:58:09,15.08840717,0.0001883,53.218,284.4816,51.5009,308.6152,-3.3777e-06,-3.42e-06,0.0,0 STARLINK-3268,1 50190U 21125AL  22236.49871898 -.00000342  00000-0 -33777-5 0  9998,2 50190  53.2180 284.4816 0001883  51.5009 308.6152 15.08840717 41505,6917.878000000002,95.438,541.0459999999998,538.441,0.0
50190.0,STARLINK-3268,PAYLOAD,2022-08-25 10:13:32,15.08840064,0.0001865999999999,53.218,280.3189,51.8384,308.2776,9.5856e-05,1.238e-05,0.0,0 STARLINK-3268,1 50190U 21125AL  22237.42607619  .00001238  00000-0  95856-4 0  9998,2 50190  53.2180 280.3189 0001866  51.8384 308.2776 15.08840064 41641,6917.88,95.438,541.036,538.4540000000002,0.0
50190.0,STARLINK-3268,PAYLOAD,2022-08-25 19:45:51,15.088417499999998,0.0001892,53.2179,278.5347,51.6753,308.4409,9.5082e-05,1.225e-05,0.0,0 STARLINK-3268,1 50190U 21125AL  22237.82351497  .00001225  00000-0  95082-4 0  9999,2 50190  53.2179 278.5347 0001892  51.6753 308.4409 15.08841750 41223,6917.875,95.437,541.049,538.431,0.0
50190.0,STARLINK-3268,PAYLOAD,2022-08-26 10:04:20,15.0883065,0.0001918,53.2177,275.8573,49.2963,310.8196,-4.747399999999999e-05,-1.043e-05,0.0,0 STARLINK-3268,1 50190U 21125AL  22238.41968709 -.00001043  00000-0 -47474-4 0  9997,2 50190  53.2177 275.8573 0001918  49.2963 310.8196 15.08830650 41314,6917.909000000002,95.438,541.101,538.447,0.0
50190.0,STARLINK-3268,PAYLOAD,2022-08-27 11:30:31,15.08833944,0.0001959,53.2178,271.0997,50.3057,309.8108,-4.781399999999999e-05,-1.049e-05,0.0,0 STARLINK-3268,1 50190U 21125AL  22239.47952979 -.00001049  00000-0 -47814-4 0  9990,2 50190  53.2178 271.0997 0001959  50.3057 309.8108 15.08833944 41955,6917.899,95.438,541.119,538.409,0.0
50190.0,STARLINK-3268,PAYLOAD,2022-08-28 08:10:32,15.08831459,0.0001905,53.2176,267.2344,50.3627,309.7533,9.5381e-05,1.23e-05,0.0,0 STARLINK-3268,1 50190U 21125AL  22240.34065012  .00001230  00000-0  95381-4 0  9993,2 50190  53.2176 267.2344 0001905  50.3627 309.7533 15.08831459 42085,6917.906,95.438,541.089,538.4540000000002,0.0
50190.0,STARLINK-3268,PAYLOAD,2022-08-29 06:25:56,15.08838012,0.0001949,53.2176,263.0716,51.0844,309.0322,0.00010082,1.317e-05,0.0,0 STARLINK-3268,1 50190U 21125AL  22241.26800974  .00001317  00000-0  10082-3 0  9999,2 50190  53.2176 263.0716 0001949  51.0844 309.0322 15.08838012 41742,6917.886,95.438,541.1,538.403,0.0
50190.0,STARLINK-3268,PAYLOAD,2022-08-29 08:01:19,15.08838641,0.0001955,53.2176,262.7741,50.9103,309.2063,0.00010502,1.384e-05,0.0,0 STARLINK-3268,1 50190U 21125AL  22241.33424946  .00001384  00000-0  10502-3 0  9999,2 50190  53.2176 262.7741 0001955  50.9103 309.2063 15.08838641 42236,6917.885,95.438,541.102,538.3969999999998,0.0
50190.0,STARLINK-3268,PAYLOAD,2022-08-30 07:52:05,15.08846115,0.0002002,53.2175,258.3138,51.7476,308.3696,0.00010195,1.335e-05,0.0,0 STARLINK-3268,1 50190U 21125AL  22242.32784417  .00001335  00000-0  10195-3 0  9995,2 50190  53.2175 258.3138 0002002  51.7476 308.3696 15.08846115 41902,6917.861999999999,95.437,541.112,538.342,0.0
